[{"OBJECT_NAME":"STARLINK-33583","OBJECT_ID":"2025-071L","EPOCH":"2026-03-09T12:05:00.596832","MEAN_MOTION":15.30189691,"ECCENTRICITY":0.00011327,"INCLINATION":53.158,"RA_OF_ASC_NODE":143.4639,"ARG_OF_PERICENTER":92.0349,"MEAN_ANOMALY":268.0781,"EPHEMERIS_TYPE":0,"CLASSIFICATION_TYPE":"U","NORAD_CAT_ID":63503,"ELEMENT_SET_NO":999,"REV_AT_EPOCH":5271,"BSTAR":0.00075995104,"MEAN_MOTION_DOT":0.00022209,"MEAN_MOTION_DDOT":0},{"OBJECT_NAME":"FENGYUN 1C DEB","OBJECT_ID":"1999-025CCN","EPOCH":"2026-03-09T02:54:06.759648","MEAN_MOTION":15.32125336,"ECCENTRICITY":0.00635941,"INCLINATION":99.8406,"RA_OF_ASC_NODE":208.081,"ARG_OF_PERICENTER":3.8747,"MEAN_ANOMALY":356.2966,"EPHEMERIS_TYPE":0,"CLASSIFICATION_TYPE":"U","NORAD_CAT_ID":31680,"ELEMENT_SET_NO":999,"REV_AT_EPOCH":1491,"BSTAR":0.0015780335,"MEAN_MOTION_DOT":0.00052353,"MEAN_MOTION_DDOT":0}]
